{
"type": "FeatureCollection",
"name": "land",
"crs": { "type": "name", "properties": { "name": "urn:ogc:def:crs:OGC:1.3:CRS84" } },
"features": [
{ "type": "Feature", "properties": { "NUMERO": "0036", "FEUILLE": 1, "SECTION": "ZM", "CODE_DEP": "25", "NOM_COM": "Levier", "CODE_COM": "334", "COM_ABS": "000", "CODE_ARR": "000" }, "geometry": { "type": "MultiPolygon", "coordinates": [ [ [ [ 6.08899167113866, 46.946054593990752 ], [ 6.089281079568652, 46.946224071636991 ], [ 6.089442962039127, 46.946319297375254 ], [ 6.089603565480867, 46.946408249880598 ], [ 6.089903913068761, 46.946241974049229 ], [ 6.090353540317435, 46.946060971976017 ], [ 6.091114474327016, 46.945703032928115 ], [ 6.091142010787657, 46.945696797948735 ], [ 6.091712114949342, 46.94556121513348 ], [ 6.092352780505006, 46.945504559801996 ], [ 6.092360577596554, 46.94550516151893 ], [ 6.092393582075816, 46.945504816511537 ], [ 6.092990660982866, 46.945567093871468 ], [ 6.093133252204028, 46.945587234585474 ], [ 6.093396116768674, 46.945570898148517 ], [ 6.093479670086321, 46.94556640271577 ], [ 6.093536277181093, 46.945566955585335 ], [ 6.094129950689546, 46.945599583986088 ], [ 6.094143504839374, 46.945601923209324 ], [ 6.094160683209545, 46.945605516692964 ], [ 6.094414587648636, 46.945690065378137 ], [ 6.094498434422399, 46.945718269313709 ], [ 6.094646945765289, 46.945768254058876 ], [ 6.094884489786149, 46.945847384274032 ], [ 6.095502288864032, 46.946002530898753 ], [ 6.096611668975902, 46.945903166007113 ], [ 6.096776679178481, 46.945889721532744 ], [ 6.096850565090906, 46.945874941189224 ], [ 6.097188694547525, 46.945798996599599 ], [ 6.098175112527244, 46.94393794772575 ], [ 6.098285080943314, 46.943735589128693 ], [ 6.098020474948021, 46.943700714156968 ], [ 6.097101216516359, 46.943856796360429 ], [ 6.096497705944725, 46.943934646175848 ], [ 6.095223549067311, 46.945178802089998 ], [ 6.094422996308151, 46.944841864768932 ], [ 6.093551768842486, 46.944771006128853 ], [ 6.092798277130197, 46.944623906429946 ], [ 6.09245960697499, 46.944554694241084 ], [ 6.092630438494581, 46.944233752640294 ], [ 6.092474429640974, 46.944245778382886 ], [ 6.09205293294064, 46.94426267506374 ], [ 6.091945554723037, 46.944462434605036 ], [ 6.091818478820647, 46.944699665354271 ], [ 6.091260802936202, 46.944672817571991 ], [ 6.089512178561456, 46.945304397906945 ], [ 6.089342744603729, 46.945401567475194 ], [ 6.089065126579382, 46.945357739970461 ], [ 6.08896505833482, 46.945441606326959 ], [ 6.088525265094366, 46.945783175781244 ], [ 6.08899167113866, 46.946054593990752 ] ] ] ] } },
{ "type": "Feature", "properties": { "NUMERO": "0038", "FEUILLE": 1, "SECTION": "ZM", "CODE_DEP": "25", "NOM_COM": "Levier", "CODE_COM": "334", "COM_ABS": "000", "CODE_ARR": "000" }, "geometry": { "type": "MultiPolygon", "coordinates": [ [ [ [ 6.092630438494581, 46.944233752640294 ], [ 6.09245960697499, 46.944554694241084 ], [ 6.092798277130197, 46.944623906429946 ], [ 6.093551768842486, 46.944771006128853 ], [ 6.094422996308151, 46.944841864768932 ], [ 6.095223549067311, 46.945178802089998 ], [ 6.096497705944725, 46.943934646175848 ], [ 6.093651885665102, 46.944152543447316 ], [ 6.092630438494581, 46.944233752640294 ] ] ] ] } },
{ "type": "Feature", "properties": { "NUMERO": "0040", "FEUILLE": 1, "SECTION": "ZM", "CODE_DEP": "25", "NOM_COM": "Levier", "CODE_COM": "334", "COM_ABS": "000", "CODE_ARR": "000" }, "geometry": { "type": "MultiPolygon", "coordinates": [ [ [ [ 6.098285080943314, 46.943735589128693 ], [ 6.098175112527244, 46.94393794772575 ], [ 6.097188694547525, 46.945798996599599 ], [ 6.097782665529574, 46.94566454405534 ], [ 6.098419971467262, 46.945556225019743 ], [ 6.098876355516591, 46.945461507736567 ], [ 6.099275272206993, 46.945417801697047 ], [ 6.099544019028651, 46.945421476466265 ], [ 6.099590067756746, 46.945423752017362 ], [ 6.099891420715263, 46.945466014923745 ], [ 6.100293350083706, 46.945550533684283 ], [ 6.100636156401877, 46.94565484301522 ], [ 6.100700071337668, 46.945606178676272 ], [ 6.09977536062644, 46.944451762412257 ], [ 6.099584753303294, 46.944298665110928 ], [ 6.099403226832622, 46.944209838390478 ], [ 6.099346784327188, 46.944189190619255 ], [ 6.099053078015041, 46.94410347049422 ], [ 6.098906587148264, 46.944061186099013 ], [ 6.098505865277331, 46.943804710269227 ], [ 6.098285080943314, 46.943735589128693 ] ] ] ] } },
{ "type": "Feature", "properties": { "NUMERO": "0040", "FEUILLE": 1, "SECTION": "0A", "CODE_DEP": "25", "NOM_COM": "Levier", "CODE_COM": "334", "COM_ABS": "000", "CODE_ARR": "000" }, "geometry": { "type": "MultiPolygon", "coordinates": [ [ [ [ 6.139901787314947, 46.964098911394096 ], [ 6.140035923290685, 46.963834220233451 ], [ 6.139746415478715, 46.963626751829004 ], [ 6.138899248799203, 46.963867878958993 ], [ 6.138538582527366, 46.963946629967388 ], [ 6.138262754575688, 46.96400631057098 ], [ 6.137660039495731, 46.964338898829766 ], [ 6.137918457550656, 46.964498381075913 ], [ 6.138187693999573, 46.964431672330797 ], [ 6.138705687062981, 46.964310524289125 ], [ 6.139901787314947, 46.964098911394096 ] ] ] ] } },
{ "type": "Feature", "properties": { "NUMERO": "0041", "FEUILLE": 1, "SECTION": "0A", "CODE_DEP": "25", "NOM_COM": "Levier", "CODE_COM": "334", "COM_ABS": "000", "CODE_ARR": "000" }, "geometry": { "type": "MultiPolygon", "coordinates": [ [ [ [ 6.137918457550656, 46.964498381075913 ], [ 6.138851493488948, 46.965073537584153 ], [ 6.139233032121687, 46.965310850329082 ], [ 6.139901787314947, 46.964098911394096 ], [ 6.138705687062981, 46.964310524289125 ], [ 6.138187693999573, 46.964431672330797 ], [ 6.137918457550656, 46.964498381075913 ] ] ] ] } },
{ "type": "Feature", "properties": { "NUMERO": "0042", "FEUILLE": 1, "SECTION": "0A", "CODE_DEP": "25", "NOM_COM": "Levier", "CODE_COM": "334", "COM_ABS": "000", "CODE_ARR": "000" }, "geometry": { "type": "MultiPolygon", "coordinates": [ [ [ [ 6.139233032121687, 46.965310850329082 ], [ 6.139456271625231, 46.965455969221388 ], [ 6.13966518203107, 46.964908291494488 ], [ 6.139973897892033, 46.964374924832406 ], [ 6.140035923290685, 46.963834220233451 ], [ 6.139901787314947, 46.964098911394096 ], [ 6.139233032121687, 46.965310850329082 ] ] ] ] } },
{ "type": "Feature", "properties": { "NUMERO": "0049", "FEUILLE": 1, "SECTION": "0A", "CODE_DEP": "25", "NOM_COM": "Levier", "CODE_COM": "334", "COM_ABS": "000", "CODE_ARR": "000" }, "geometry": { "type": "MultiPolygon", "coordinates": [ [ [ [ 6.136461670782641, 46.964869885459393 ], [ 6.136753224928136, 46.964972152480435 ], [ 6.136934699978022, 46.965028306408357 ], [ 6.137041254819479, 46.965040905148342 ], [ 6.137111022446479, 46.96504558436758 ], [ 6.137254088265334, 46.965045475574399 ], [ 6.137616090488748, 46.965064367450779 ], [ 6.137723896547324, 46.96506224422658 ], [ 6.137947884602878, 46.965066239455098 ], [ 6.138851493488948, 46.965073537584153 ], [ 6.137918457550656, 46.964498381075913 ], [ 6.137660039495731, 46.964338898829766 ], [ 6.137620181879031, 46.964289434145222 ], [ 6.137528949684357, 46.964162164461442 ], [ 6.137347709903954, 46.963896959054253 ], [ 6.137184675405961, 46.963788853456727 ], [ 6.137294057926344, 46.964144859245202 ], [ 6.137350221926673, 46.964277949206512 ], [ 6.137157727755956, 46.964680285047748 ], [ 6.137155834104217, 46.964683940820862 ], [ 6.136729595144188, 46.964694367861583 ], [ 6.136461670782641, 46.964869885459393 ] ] ] ] } },
{ "type": "Feature", "properties": { "NUMERO": "0180", "FEUILLE": 1, "SECTION": "0A", "CODE_DEP": "25", "NOM_COM": "Levier", "CODE_COM": "334", "COM_ABS": "000", "CODE_ARR": "000" }, "geometry": { "type": "MultiPolygon", "coordinates": [ [ [ [ 6.138628501764116, 46.963498426849256 ], [ 6.138281290021525, 46.963434893668357 ], [ 6.138370712092135, 46.96326134773593 ], [ 6.137296961214465, 46.962975383659924 ], [ 6.136862030843816, 46.963556779871901 ], [ 6.137050009937641, 46.963695564001078 ], [ 6.137184675405961, 46.963788853456727 ], [ 6.137347709903954, 46.963896959054253 ], [ 6.137528949684357, 46.964162164461442 ], [ 6.137620181879031, 46.964289434145222 ], [ 6.137660039495731, 46.964338898829766 ], [ 6.138262754575688, 46.96400631057098 ], [ 6.138538582527366, 46.963946629967388 ], [ 6.138899248799203, 46.963867878958993 ], [ 6.139746415478715, 46.963626751829004 ], [ 6.140174387052139, 46.963508138755046 ], [ 6.140264162572375, 46.963345304207543 ], [ 6.13999472604348, 46.96338805524082 ], [ 6.139909705971557, 46.963401724386898 ], [ 6.13981649665502, 46.96341489566769 ], [ 6.13954751240579, 46.963438260490022 ], [ 6.139203007830159, 46.963468907379287 ], [ 6.139180842913015, 46.963465726498555 ], [ 6.138628501764116, 46.963498426849256 ] ] ] ] } },
{ "type": "Feature", "properties": { "NUMERO": "0063", "FEUILLE": 1, "SECTION": "AC", "CODE_DEP": "25", "NOM_COM": "Levier", "CODE_COM": "334", "COM_ABS": "000", "CODE_ARR": "000" }, "geometry": { "type": "MultiPolygon", "coordinates": [ [ [ [ 6.11691453848747, 46.954651293838943 ], [ 6.116875988786826, 46.954687927934437 ], [ 6.116836123471168, 46.954726850226251 ], [ 6.116637363609783, 46.954871978272308 ], [ 6.116649735199625, 46.954878852177302 ], [ 6.116828777897085, 46.954980515315903 ], [ 6.116975061215521, 46.955064051857207 ], [ 6.116985677690699, 46.955056466223347 ], [ 6.117042929846669, 46.955015541901432 ], [ 6.11717117724588, 46.955012253821536 ], [ 6.117300858182866, 46.95492431785231 ], [ 6.117255921277792, 46.954884445118971 ], [ 6.11691453848747, 46.954651293838943 ] ] ] ] } },
{ "type": "Feature", "properties": { "NUMERO": "0065", "FEUILLE": 1, "SECTION": "AC", "CODE_DEP": "25", "NOM_COM": "Levier", "CODE_COM": "334", "COM_ABS": "000", "CODE_ARR": "000" }, "geometry": { "type": "MultiPolygon", "coordinates": [ [ [ [ 6.117526831735018, 46.955209877288517 ], [ 6.117571139172266, 46.955234268820128 ], [ 6.117605614332068, 46.955206845351107 ], [ 6.117563898385629, 46.955181753001163 ], [ 6.117526831735018, 46.955209877288517 ] ] ] ] } },
{ "type": "Feature", "properties": { "NUMERO": "0276", "FEUILLE": 1, "SECTION": "AC", "CODE_DEP": "25", "NOM_COM": "Levier", "CODE_COM": "334", "COM_ABS": "000", "CODE_ARR": "000" }, "geometry": { "type": "MultiPolygon", "coordinates": [ [ [ [ 6.11671010894225, 46.955079145817663 ], [ 6.116724916592308, 46.95508946795362 ], [ 6.116862854967532, 46.955172058918016 ], [ 6.117087865629599, 46.95512840011294 ], [ 6.116975061215521, 46.955064051857207 ], [ 6.116828777897085, 46.954980515315903 ], [ 6.11671010894225, 46.955079145817663 ] ] ] ] } },
{ "type": "Feature", "properties": { "NUMERO": "0278", "FEUILLE": 1, "SECTION": "AC", "CODE_DEP": "25", "NOM_COM": "Levier", "CODE_COM": "334", "COM_ABS": "000", "CODE_ARR": "000" }, "geometry": { "type": "MultiPolygon", "coordinates": [ [ [ [ 6.116524826550396, 46.954965126562143 ], [ 6.11671010894225, 46.955079145817663 ], [ 6.116828777897085, 46.954980515315903 ], [ 6.116649735199625, 46.954878852177302 ], [ 6.116524826550396, 46.954965126562143 ] ] ] ] } },
{ "type": "Feature", "properties": { "NUMERO": "0279", "FEUILLE": 1, "SECTION": "AC", "CODE_DEP": "25", "NOM_COM": "Levier", "CODE_COM": "334", "COM_ABS": "000", "CODE_ARR": "000" }, "geometry": { "type": "MultiPolygon", "coordinates": [ [ [ [ 6.116637363609783, 46.954871978272308 ], [ 6.116516920547624, 46.954960384534694 ], [ 6.116524826550396, 46.954965126562143 ], [ 6.116649735199625, 46.954878852177302 ], [ 6.116637363609783, 46.954871978272308 ] ] ] ] } },
{ "type": "Feature", "properties": { "NUMERO": "0320", "FEUILLE": 1, "SECTION": "AC", "CODE_DEP": "25", "NOM_COM": "Levier", "CODE_COM": "334", "COM_ABS": "000", "CODE_ARR": "000" }, "geometry": { "type": "MultiPolygon", "coordinates": [ [ [ [ 6.117087865629599, 46.95512840011294 ], [ 6.117294381804888, 46.955250043825266 ], [ 6.117443368964357, 46.955339363529838 ], [ 6.117545599005281, 46.95539832072155 ], [ 6.117652450986332, 46.955309289835064 ], [ 6.11755242869212, 46.95524982249681 ], [ 6.117324288806465, 46.955109211186432 ], [ 6.11717117724588, 46.955012253821536 ], [ 6.117042929846669, 46.955015541901432 ], [ 6.116985677690699, 46.955056466223347 ], [ 6.116975061215521, 46.955064051857207 ], [ 6.117087865629599, 46.95512840011294 ] ] ] ] } },
{ "type": "Feature", "properties": { "NUMERO": "0322", "FEUILLE": 1, "SECTION": "AC", "CODE_DEP": "25", "NOM_COM": "Levier", "CODE_COM": "334", "COM_ABS": "000", "CODE_ARR": "000" }, "geometry": { "type": "MultiPolygon", "coordinates": [ [ [ [ 6.117737457946846, 46.955238510390132 ], [ 6.117670332615348, 46.955197255662739 ], [ 6.11743688214611, 46.955023899739928 ], [ 6.117300858182866, 46.95492431785231 ], [ 6.11717117724588, 46.955012253821536 ], [ 6.117324288806465, 46.955109211186432 ], [ 6.11755242869212, 46.95524982249681 ], [ 6.117652450986332, 46.955309289835064 ], [ 6.117737457946846, 46.955238510390132 ] ], [ [ 6.117526831735018, 46.955209877288517 ], [ 6.117563898385629, 46.955181753001163 ], [ 6.117605614332068, 46.955206845351107 ], [ 6.117571139172266, 46.955234268820128 ], [ 6.117526831735018, 46.955209877288517 ] ] ] ] } },
{ "type": "Feature", "properties": { "NUMERO": "0050", "FEUILLE": 1, "SECTION": "ZD", "CODE_DEP": "25", "NOM_COM": "Levier", "CODE_COM": "334", "COM_ABS": "000", "CODE_ARR": "000" }, "geometry": { "type": "MultiPolygon", "coordinates": [ [ [ [ 6.140174387052139, 46.963508138755046 ], [ 6.139746415478715, 46.963626751829004 ], [ 6.140035923290685, 46.963834220233451 ], [ 6.139973897892033, 46.964374924832406 ], [ 6.13966518203107, 46.964908291494488 ], [ 6.139964124992117, 46.96498584046445 ], [ 6.140141849363384, 46.964465592349256 ], [ 6.140488362722675, 46.963459488444343 ], [ 6.140174387052139, 46.963508138755046 ] ] ] ] } },
{ "type": "Feature", "properties": { "NUMERO": "0089", "FEUILLE": 1, "SECTION": "ZD", "CODE_DEP": "25", "NOM_COM": "Levier", "CODE_COM": "334", "COM_ABS": "000", "CODE_ARR": "000" }, "geometry": { "type": "MultiPolygon", "coordinates": [ [ [ [ 6.140174387052139, 46.963508138755046 ], [ 6.140488362722675, 46.963459488444343 ], [ 6.140367426725673, 46.96333303003081 ], [ 6.140264162572375, 46.963345304207543 ], [ 6.140174387052139, 46.963508138755046 ] ] ] ] } }
]
}
